OBJECT_NAME,OBJECT_ID,EPOCH,MEAN_MOTION,ECCENTRICITY,INCLINATION,RA_OF_ASC_NODE,ARG_OF_PERICENTER,MEAN_ANOMALY,EPHEMERIS_TYPE,CLASSIFICATION_TYPE,NORAD_CAT_ID,ELEMENT_SET_NO,REV_AT_EPOCH,BSTAR,MEAN_MOTION_DOT,MEAN_MOTION_DDOT
SPACEMOBILE-004,2024-163E,2026-07-17T22:07:22.216224,15.20759542,.00057873,52.9683,167.5779,225.7382,134.3138,0,U,61049,999,10244,.53167416E-3,.11552E-3,0
CZ-8A R/B,2025-231K,2026-07-18T05:11:13.854912,14.30162663,.01165517,50.0036,267.3063,333.2524,26.2411,0,U,66004,999,3938,.39118519E-4,-.55E-6,0
SZ-21 MODULE,2025-246C,2026-07-18T04:02:33.980640,15.79019502,.00088143,41.4718,113.9818,240.5202,119.4765,0,U,66515,999,3863,.17974179E-3,.32775E-3,0
SPACEMOBILE-006,2025-309A,2026-07-18T05:42:56.496960,15.18662538,.00097963,52.9934,189.3935,225.5162,134.5032,0,U,67232,999,3131,.78550443E-4,.1328E-4,0
SPACEMOBILE-008,2026-139A,2026-07-18T04:36:15.598080,15.12804576,.0005199,52.9950,121.8023,63.4511,296.7013,0,U,69589,999,467,.37209981E-4,.359E-5,0
SPACEMOBILE-009,2026-139B,2026-07-18T01:29:06.470880,15.12697857,.0005388,52.9941,122.4098,59.4835,300.6687,0,U,69590,999,465,.36982011E-4,.354E-5,0
SPACEMOBILE-010,2026-139C,2026-07-18T03:09:11.464416,15.12535619,.00054148,52.9947,122.1344,52.1260,308.0220,0,U,69591,999,467,.81671785E-4,.1139E-4,0
